stk.v.4.3 

BEGIN Ephemeris 
 
NumberOfEphemerisPoints		146 
ScenarioEpoch	    4 Sep 2020  1:42:26.262739599 
InterpolationMethod		Lagrange 
InterpolationOrder		5 
CentralBody				Earth 
CoordinateSystem			TEME 
CoordinateSystemEpoch	  4 Sep 2020  1:42:26.262739599 
DistanceUnit			Kilometers 
 
EphemerisTimePosVel 
 
       0.00000000    -390.07882604    7148.03237642       0.03593644 -0.468140547 -0.034660835  7.448898018
 END Ephemeris 
